NUSAT-1 (FRESCO)        
1 41557U 16033B   22175.41751519  .00011891  00000+0  35338-3 0  9999
2 41557  97.3880 273.1254 0010228   1.2191  63.0623 15.34864747338452
BEESAT-4                
1 41619U 16040W   22175.36930845  .00011671  00000+0  38742-3 0  9999
2 41619  97.2166 225.8139 0011317  94.7693 265.4841 15.31315718321781
CAS-2T & KS-1Q          
1 41847U 16066G   22175.36789427  .00000818  00000+0  13252-3 0  9998
2 41847  98.5508 240.0326 0363693 189.0188 170.4348 14.38594765295345
NAYIF-1 (EO-88)         
1 42017U 17008BX  22175.47565638  .00011248  00000+0  33501-3 0  9991
2 42017  97.2688 241.4878 0004678 198.6066 161.5007 15.34846216298156
ZHUHAI-1 02 (CAS-4B)    
1 42759U 17034B   22175.45329676  .00004321  00000+0  25999-3 0  9997
2 42759  43.0181 294.1177 0010054 327.2715 152.4062 15.11971698277413
ZHUHAI-1 01 (CAS-4A)    
1 42761U 17034D   22175.55304280  .00003638  00000+0  22046-3 0  9995
2 42761  43.0179 292.3516 0010172 329.5058 141.1661 15.12056263277431
MAX VALIER SAT          
1 42778U 17036P   22175.53151687  .00005947  00000+0  22607-3 0  9992
2 42778  97.2049 216.3894 0008886 306.1780  53.8637 15.27116526277980
RADFXSAT (FOX-1B)       
1 43017U 17073E   22175.39662062  .00002550  00000+0  19481-3 0  9991
2 43017  97.6752  69.3070 0248890 164.7791 196.1090 14.81430707248144
FOX-1D (AO-92)          
1 43137U 18004AC  22175.48847473  .00006954  00000+0  24549-3 0  9993
2 43137  97.3688 250.5814 0006746 349.1710  10.9384 15.29524265247418
DIWATA-2B               
1 43678U 18084H   22175.42344934  .00000948  00000+0  98867-4 0  9991
2 43678  97.9715 308.7706 0008433 260.6878  99.3364 14.92185540198892
ES'HAIL 2               
1 43700U 18090A   22175.47025062  .00000148  00000+0  00000+0 0  9996
2 43700   0.0111  51.3258 0001072  64.7125 351.6321  1.00273177 13102
FOX-1CLIFF (AO-95)      
1 43770U 18099N   22175.41066625  .00002250  00000+0  20297-3 0  9996
2 43770  97.6213 241.5801 0012396 249.3158 110.6735 14.96473634194054
ITASAT 1                
1 43786U 18099AE  22175.47014247  .00002228  00000+0  20025-3 0  9996
2 43786  97.6235 242.5602 0013239 240.6283 119.3617 14.96611840194109
JY1SAT (JO-97)          
1 43803U 18099AX  22175.41874654  .00001820  00000+0  16242-3 0  9999
2 43803  97.6204 242.2677 0013066 240.6810 119.3107 14.97117665194110
UWE-4                   
1 43880U 18111E   22175.48028356  .00002382  00000+0  20553-3 0  9990
2 43880  97.6677  81.6680 0010054 300.9027  59.1207 14.98192503190755
NEXUS (FO-99)           
1 43937U 19003F   22175.35994794  .00010608  00000+0  35549-3 0  9999
2 43937  97.1299 208.4419 0022396 126.8647 233.4653 15.30847250191034
PSAT2 (NO-104)          
1 44354U 19036R   22175.20497630  .00070123 -48939-5  61700-3 0  9996
2 44354  28.5231 131.5263 0226980  46.7650 315.1664 15.40694359165722
JAISAT-1                
1 44419U 19038F   22175.42713018  .00005734  00000+0  28858-3 0  9998
2 44419  97.6352 145.6059 0021335 106.0097 254.3488 15.17420287164117
DUCHIFAT-3              
1 44854U 19089C   22175.35787842  .00003531  00000+0  27628-3 0  9992
2 44854  36.9665  59.4114 0009732 280.7773  79.1873 15.01126282138972
CAS-6 (TO-108)          
1 44881U 19093C   22175.53414414  .00000603  00000+0  83018-4 0  9992
2 44881  97.8925 254.6413 0015508 158.2224 201.9657 14.81737282135827
RS-44 & BREEZE-KM R/B   
1 44909U 19096E   22175.07070446  .00000018  00000+0  34392-4 0  9999
2 44909  82.5211 225.8794 0216360 304.4525  53.6298 12.79713557116351
ORBITAL FACTORY 2 (OF-2)
1 45113U 19071C   22175.28657797  .00019900  00000+0  41144-3 0  9995
2 45113  51.6396  25.7391 0010013 192.6477 167.4260 15.45754445134439
HUSKYSAT-1 (HO-107)     
1 45119U 19071J   22175.29647835  .00017072  00000+0  36606-3 0  9999
2 45119  51.6396  25.7800 0009779 189.0159 171.0654 15.44799061134423
BY70-2                  
1 45857U 20042B   22175.52597339  .00007004  00000+0  93323-3 0  9990
2 45857  97.9543 252.2978 0012491  96.8177 263.4445 14.79902017106508
SALSAT                  
1 46495U 20068K   22175.47897407  .00001040  00000+0  78565-4 0  9996
2 46495  97.7296 116.7815 0014723 252.5026 107.4591 15.04540150 95240
BY70-3                  
1 46839U 20079N   22175.58184461  .00022617  00000+0  52617-3 0  9993
2 46839  97.1978 247.5832 0003743 310.9333 156.8653 15.42309850 91341
RADFXSAT-2 (AO-109)     
1 47311U 21002C   22175.41677402  .00005951  00000+0  24370-3 0  9997
2 47311  60.6860 336.0325 0017408 341.6184  18.4273 15.25403678 79522
UVSQ-SAT                
1 47438U 21006AB  22175.40988314  .00004162  00000+0  22131-3 0  9993
2 47438  97.4370 234.2773 0010381 246.4904 113.5238 15.15770715 78331
DIY-1 (ARDUIQUBE)       
1 47963U 21022AH  22175.48624771  .00010442  00000+0  58123-3 0  9994
2 47963  97.5321  76.7640 0019082 105.7805 254.5532 15.13672552 68012
XW-3 (CAS-9)            
1 50466U 21131B   22175.47558655  .00000096  00000+0  46116-4 0  9997
2 50466  98.5805 252.7263 0005824 122.7219 237.4531 14.38503092 25926
TEVEL-3                 
1 50988U 22002E   22175.44187780  .00007131  00000+0  39017-3 0  9996
2 50988  97.4812 242.3074 0010508  48.9174  74.8537 15.14510068 24474
TEVEL-8                 
1 50989U 22002F   22175.44849743  .00007171  00000+0  39292-3 0  9990
2 50989  97.4826 242.3322 0010566  48.0235  82.6841 15.14458671 24475
TEVEL-5                 
1 50998U 22002Q   22175.46006561  .00007381  00000+0  39821-3 0  9996
2 50998  97.4803 242.4191 0012090  43.5024  77.9986 15.14986988 24480
TEVEL-6                 
1 50999U 22002R   22175.45970148  .00007405  00000+0  39943-3 0  9999
2 50999  97.4803 242.4174 0012004  43.1118  78.3743 15.14991513 24483
TEVEL-1                 
1 51013U 22002AF  22175.44416220  .00007089  00000+0  38818-3 0  9990
2 51013  97.4806 242.2942 0010368  48.4248  75.2024 15.14485966 24475
TEVEL-7                 
1 51062U 22002CG  22175.44972338  .00007207  00000+0  39499-3 0  9999
2 51062  97.4822 242.3239 0010616  47.4021  82.6741 15.14448901 24477
TEVEL-4                 
1 51063U 22002CH  22175.44912170  .00007187  00000+0  39398-3 0  9993
2 51063  97.4822 242.3209 0010567  47.4415  76.6235 15.14440977 24473
TEVEL-2                 
1 51069U 22002CP  22175.44301686  .00007095  00000+0  38830-3 0  9991
2 51069  97.4799 242.2973 0010428  48.8334  75.5041 15.14502236 24470
